[{"OBJECT_NAME":"WILDFIRE 9","OBJECT_ID":"2023-133J","EPOCH":"2026-03-09T14:40:36.790752","MEAN_MOTION":13.85385893,"ECCENTRICITY":0.0004797,"INCLINATION":81.0007,"RA_OF_ASC_NODE":103.5212,"ARG_OF_PERICENTER":283.4669,"MEAN_ANOMALY":76.5953,"EPHEMERIS_TYPE":0,"CLASSIFICATION_TYPE":"U","NORAD_CAT_ID":57765,"ELEMENT_SET_NO":999,"REV_AT_EPOCH":12723,"BSTAR":6.5194e-5,"MEAN_MOTION_DOT":8.5e-7,"MEAN_MOTION_DDOT":0},{"OBJECT_NAME":"METEOR 2-20","OBJECT_ID":"1990-086A","EPOCH":"2026-03-09T22:13:46.221888","MEAN_MOTION":13.84452784,"ECCENTRICITY":0.00124144,"INCLINATION":82.521,"RA_OF_ASC_NODE":276.7195,"ARG_OF_PERICENTER":307.855,"MEAN_ANOMALY":52.1486,"EPHEMERIS_TYPE":0,"CLASSIFICATION_TYPE":"U","NORAD_CAT_ID":20826,"ELEMENT_SET_NO":999,"REV_AT_EPOCH":79058,"BSTAR":2.8851715e-5,"MEAN_MOTION_DOT":4.7e-7,"MEAN_MOTION_DDOT":0}]
